    CJ95O010  1997 03 29.7452  0.896229  0.994962  130.4608  283.1052   89.1105  20211016  -2.0  4.0  C/1995 O1 (Hale-Bopp)                                    MPC106342
    PJ96R020  2019 02 12.0502  2.588283  0.314339  333.3366   40.0157    2.6006  20211016  11.5  4.0  P/1996 R2 (Lagerkvist)                                   NK   1615
    PJ97B010  2022 03 28.7302  2.056127  0.760327  183.3263  328.8813   12.3395  20211016  15.0  2.0  P/1997 B1 (Kobayashi)                                    MPC 30063
    PJ98V24S  2018 01 18.4514  3.429505  0.242514  244.6055  159.0379    5.0264  20211016  13.0  2.0  P/1998 VS24 (LINEAR)                                     MPC 75703
    PJ99R28O  2019 06 26.3931  1.122772  0.672341  231.2652  137.8858    7.5673  20211016  20.0  2.0  P/1999 RO28 (LONEOS)                                     NK    731
    PJ99XC0N  2025 12 24.5764  3.300474  0.210226  161.7884  285.2965    5.0296  20211016  13.5  2.0  P/1999 XN120 (Catalina)                                  MPC 75704
    PK00R020  2019 06 17.6163  1.623850  0.531616  176.5535  160.2858   11.6870  20211016  18.0  4.0  P/2000 R2 (LINEAR)                                       NK    744
    PK01H050  2015 10 17.3325  2.449353  0.598300  224.8292  328.6828    8.3667  20211016  12.0  4.0  P/2001 H5 (NEAT)                                         MPC 43019
    PK01Q060  2024 02 28.6682  1.407491  0.823065   42.9279   22.1686   56.9104  20211016  13.5  4.0  P/2001 Q6 (NEAT)                                         MPC 75704
    PK02E57J  2018 06 17.7547  2.637170  0.592319  167.3414  330.3254    4.9762  20211016  12.5  4.0  P/2002 EJ57 (LINEAR)                                     MPC 47727
    PK02T060  2024 07 21.6594  3.376991  0.561052  219.6630  206.2045   10.8401  20211016  10.5  4.0  P/2002 T6 (NEAT-LINEAR)                                  MPC109588
    CK02V94Q  2006 01 27.4772  6.825977  0.963048  100.0936   35.0791   70.6328  20211016   9.5  2.0  C/2002 VQ94 (LINEAR)                                     MPC 75007
    PK03F020  2019 11 12.7028  2.977025  0.542113  192.1704  359.0192   11.6071  20211016  16.5  2.0  P/2003 F2 (NEAT)                                         MPC 50354
    PK03Q29X  2025 08  5.6375  4.229346  0.472945   37.5419  264.5556   11.3905  20211016   8.5  4.0  P/2003 QX29 (NEAT)                                       MPC 50139
    PK03T120  2020 05  6.9471  0.595116  0.769856  219.7493  174.5802   11.0209  20211016  17.0  4.0  P/2003 T12 (SOHO)                                        MPC105235
    PK04A010  2027 01 20.6117  5.499802  0.309387   21.2364  124.8497   10.5517  20211016   6.5  4.0  P/2004 A1 (LONEOS)                                       MPC 82312
    PK04D29O  2024 06  4.4596  4.073016  0.441098   40.6344  147.3716   14.5325  20211016  13.5  2.0  P/2004 DO29 (Spacewatch-LINEAR)                          MPC 54558
    PK04FE0Y  2026 05 31.6709  4.079964  0.168075  242.3418  326.7638    2.1348  20211016  12.5  2.0  P/2004 FY140 (LINEAR)                                    MPC 54823
    PK04R030  2021 09 22.7321  3.547260  0.258443   37.9172  305.4263   12.7923  20211016  14.5  4.0  P/2004 R3 (LINEAR-NEAT)                                  MPC 53304
    PK04V030  2023 11 22.4028  3.952523  0.446280  322.3872  356.1274   50.4427  20211016  11.5  4.0  P/2004 V3 (Siding Spring)                                MPC 55521
    PK04V050  2027 08 17.5265  4.439960  0.443751   87.6608   47.7890   19.3406  20211016   8.0  4.0  P/2004 V5 (LINEAR-Hill)                                  MPC 75705
    PK05E010  2023 09 29.2872  4.400438  0.375167  194.0140  335.5674    4.2638  20211016  10.0  4.0  P/2005 E1 (Tubbiolo)                                     MPC 54164
    PK05G08F  2019 09 27.4694  2.809472  0.517191  284.6209  314.6815    1.1877  20211016  11.5  4.0  P/2005 GF8 (LONEOS)                                      MPC 54823
    PK05J010  2018 10 12.3164  1.537437  0.569445  338.9602  268.8171   31.7562  20211016  16.5  4.0  P/2005 J1 (McNaught)                                     MPC 79019
    PK05L010  2021 11  2.8011  3.142605  0.209804  149.7402  138.2481    7.7385  20211016   9.5  4.0  P/2005 L1 (McNaught)                                     MPC 74246
    PK05S020  2029 01 15.6303  6.428181  0.197754  229.1988  161.2161    3.1357  20211016   7.5  4.0  P/2005 S2 (Skiff)                                        MPC 75706
    PK05SL6B  2026 01 17.5153  3.824971  0.463931   83.3302    1.1674   24.0940  20211016  12.0  2.0  P/2005 SB216 (LONEOS)                                    MPC 75706
    PK05T020  2020 04  8.4556  2.245562  0.416336   58.8622  260.1606    8.2911  20211016  14.5  4.0  P/2005 T2 (Christensen)                                  MPC 55717
    PK05T030  2026 08 17.0149  6.259640  0.174699    6.7423   27.7055    6.2236  20211016   9.0  4.0  P/2005 T3 (Read)                                         MPC 73461
    PK05T040  2034 05 24.3460  0.658001  0.929709   41.7127   25.8066  160.2305  20211016  15.0  4.0  P/2005 T4 (SWAN)                                         MPC 73461
    PK05T050  2025 06 14.1516  3.261372  0.552476  304.5977   57.0002   21.3661  20211016  11.0  4.0  P/2005 T5 (Broughton)                                    MPC 75706
    PK05Y020  2020 10 18.9159  3.377131  0.469749  193.8415   94.3378   19.0482  20211016   9.0  4.0  P/2005 Y2 (McNaught)                                     MPC 75706
    PK06F040  2019 08  2.4565  2.320221  0.340684   30.8468  183.8232   12.4344  20211016  15.0  4.0  P/2006 F4 (Spacewatch)                                   MPC 56954
    PK06H30R  2028 10 10.8108  1.230118  0.842512  117.3015  309.8923   31.8340  20211016  11.0  4.0  P/2006 HR30 (Siding Spring)                              MPC 75707
    PK07A020  2022 11 29.1492  2.798641  0.557914  186.7182  300.9087   26.4876  20211016  13.5  4.0  P/2007 A2 (Christensen)                                  MPC 75707
    PK07C020  2026 03 25.1875  3.697528  0.471258  180.0896  275.4499    8.6256  20211016  10.0  4.0  P/2007 C2 (Catalina)                                     MPC 75707
    CK07D010  2007 06  7.7363  8.814246  0.993390  339.9565  171.2248   41.5017  20211016   3.5  4.0  C/2007 D1 (LINEAR)                                       MPC 84315
    PK07K020  2026 12 31.3376  2.304139  0.682975  347.4159  188.6390    7.6299  20211016  14.0  4.0  P/2007 K2 (Gibbs)                                        MPC 82314
    PK07Q020  2020 11 26.9870  1.864990  0.670129  162.7939  172.1572   10.2026  20211016  16.0  4.0  P/2007 Q2 (Gilmore)                                      MPC 60925
    PK07R040  2021 12  8.7001  1.957588  0.670136  282.5868   87.1977   20.2096  20211016  14.5  4.0  P/2007 R4 (Garradd)                                      MPC 75708
    PK07S010  2022 10  7.7768  2.522085  0.339670  245.4784  141.3700    5.9641  20211016  13.0  4.0  P/2007 S1 (Zhao)                                         MPC 73462
    PK07T020  2023 11 17.5511  0.653430  0.785523  359.6436    3.3758    9.7508  20211016  18.5  4.0  P/2007 T2 (Kowalski)                                     MPC 61994
    PK08L020  2023 05 11.0645  2.331010  0.613302  141.2369  218.0123   25.8655  20211016  12.5  4.0  P/2008 L2 (Hill)                                         MPC 75709
    PK08O030  2031 12 19.6536  2.500591  0.695777  341.1159   47.5786   32.2903  20211016  13.0  4.0  P/2008 O3 (Boattini)                                     MPC 64114
    PK08W96Z  2021 08 26.7983  1.848725  0.469800  341.9386   56.4458    7.1118  20211016  13.5  4.0  P/2008 WZ96 (LINEAR)                                     MPC 66204
    PK08Y030  2031 10 19.3614  4.462768  0.445450  238.1579  262.8154   38.7702  20211016   8.5  4.0  P/2008 Y3 (McNaught)                                     MPC 75710
    PK09B010  2026 07  1.8276  2.458809  0.635055  128.8745  297.0867   22.2228  20211016  13.0  4.0  P/2009 B1 (Boattini)                                     MPC 75710
    CK09G010  2009 04 16.5798  1.138176  0.997452  175.4504  120.4613  108.6949  20211016   9.0  4.0  C/2009 G1 (STEREO)                                       MPC 66466
    PK09O030  2031 01 18.0733  2.424693  0.687872  154.4438  183.6940   16.2805  20211016  12.5  4.0  P/2009 O3 (Hill)                                         MPC 75710
    PK09Q050  2029 12 15.1377  2.904208  0.609346  209.0427  160.2800   40.9887  20211016  10.0  4.0  P/2009 Q5 (McNaught)                                     MPC 68902
    PK09T020  2031 06 13.4606  1.809732  0.765644  216.3601  215.8453   27.5776  20211016  14.0  4.0  P/2009 T2 (La Sagra)                                     MPC112389
    PK09W51X  2020 11 16.3190  0.800901  0.740122  118.1464   31.6482    9.5937  20211016  19.0  2.0  P/2009 WX51 (Catalina)                                   MPC105235
    PK09Y020  2026 12  3.5882  2.382900  0.636214  172.1356  262.0285   29.9404  20211016  13.0  4.0  P/2009 Y2 (Kowalski)                                     MPC 74247
    PK10A030  2025 03 12.4731  1.620154  0.733545   42.1777   63.7924   14.8286  20211016  14.0  4.0  P/2010 A3 (Hill)                                         MPC 75711
    PK10C010  2028 10 16.2086  5.263606  0.259063    3.5948  141.8860    9.1281  20211016   9.5  4.0  P/2010 C1 (Scotti)                                       MPC 75008
    PK10D020  2027 07 11.6126  3.687478  0.451115  120.0047  319.8902   57.0867  20211016  16.0  4.0  P/2010 D2 (WISE)                                         MPC 75008
    PK10E020  2010 03 29.9291  2.422002  0.719668    8.3500  177.8219   15.3903  20211016  14.0  4.0  P/2010 E2 (Jarnac)                                       MPC 75009
    PK10H020  2025 03 11.5110  3.081913  0.196001  128.0742   64.1935   14.2751  20211016   6.0  4.0  P/2010 H2 (Vales)                                        MPC 72851
    PK10H030  2021 02  7.9489  0.044467  0.985360   26.1583   77.0873   23.0673  20211016  20.0  2.0  P/2010 H3 (SOHO)                                         MPC 70361
